start=new Date('2023-06-10T00:00:00.000Z').valueOf();
sats=[{"OBJECT_ID":"2021-017BB","DECAY_DATE":null,"PERIAPSIS":"546.264","ELEMENT_SET_NO":"999","APOAPSIS":"548.090","OBJECT_NAME":"STARLINK-2194","PERIOD":"95.591","RCS_SIZE":"LARGE","CENTER_NAME":"EARTH","SEMIMAJOR_AXIS":"6925.312","MEAN_MOTION_DOT":"0.00011267","ECCENTRICITY":"0.00013180","NORAD_CAT_ID":"47771","RA_OF_ASC_NODE":"33.2365","CLASSIFICATION_TYPE":"U","TLE_LINE1":"1 47771U 21017BB  23160.80437499  .00011267  00000-0  77383-3 0  9991","EPOCH":"2023-06-09T19:18:17.999136","TIME_SYSTEM":"UTC","MEAN_ANOMALY":"288.8027","MEAN_ELEMENT_THEORY":"SGP4","INCLINATION":"53.0544","TLE_LINE2":"2 47771  53.0544  33.2365 0001318  71.3105 288.8027 15.06411861126525","EPHEMERIS_TYPE":"0","REF_FRAME":"TEME","COUNTRY_CODE":"US","MEAN_MOTION_DDOT":"0.0000000000000","BSTAR":"0.00077383000000","FILE":"3929125","ARG_OF_PERICENTER":"71.3105","GP_ID":"233577614","SITE":"AFETR","OBJECT_TYPE":"PAYLOAD","LAUNCH_DATE":"2021-03-04","REV_AT_EPOCH":"12652","MEAN_MOTION":"15.06411861"},{"CENTER_NAME":"EARTH","RCS_SIZE":"LARGE","PERIOD":"95.592","SEMIMAJOR_AXIS":"6925.334","ECCENTRICITY":"0.00010610","MEAN_MOTION_DOT":"0.00011249","NORAD_CAT_ID":"47772","ELEMENT_SET_NO":"999","PERIAPSIS":"546.464","DECAY_DATE":null,"OBJECT_ID":"2021-017BC","APOAPSIS":"547.934","OBJECT_NAME":"STARLINK-2195","ARG_OF_PERICENTER":"107.8195","BSTAR":"0.00077275000000","FILE":"3928876","MEAN_MOTION_DDOT":"0.0000000000000","SITE":"AFETR","GP_ID":"233546085","OBJECT_TYPE":"PAYLOAD","MEAN_MOTION":"15.06404781","REV_AT_EPOCH":"12622","LAUNCH_DATE":"2021-03-04","RA_OF_ASC_NODE":"50.0655","MEAN_ANOMALY":"252.2909","MEAN_ELEMENT_THEORY":"SGP4","TIME_SYSTEM":"UTC","TLE_LINE1":"1 47772U 21017BC  23160.39569919  .00011249  00000-0  77275-3 0  9999","CLASSIFICATION_TYPE":"U","EPOCH":"2023-06-09T09:29:48.410016","INCLINATION":"53.0538","COUNTRY_CODE":"US","REF_FRAME":"TEME","EPHEMERIS_TYPE":"0","TLE_LINE2":"2 47772  53.0538  50.0655 0001061 107.8195 252.2909 15.06404781126221"},{"ELEMENT_SET_NO":"999","PERIAPSIS":"546.476","OBJECT_ID":"2021-017BD","DECAY_DATE":null,"APOAPSIS":"548.019","OBJECT_NAME":"STARLINK-2196","CENTER_NAME":"EARTH","RCS_SIZE":"LARGE","PERIOD":"95.593","SEMIMAJOR_AXIS":"6925.383","MEAN_MOTION_DOT":"0.00021659","ECCENTRICITY":"0.00011140","NORAD_CAT_ID":"47773","RA_OF_ASC_NODE":"52.1692","TIME_SYSTEM":"UTC","MEAN_ELEMENT_THEORY":"SGP4","MEAN_ANOMALY":"272.2913","TLE_LINE1":"1 47773U 21017BD  23159.92759011  .00021659  00000-0  14689-2 0  9996","EPOCH":"2023-06-08T22:15:43.785504","CLASSIFICATION_TYPE":"U","INCLINATION":"53.0544","REF_FRAME":"TEME","COUNTRY_CODE":"US","TLE_LINE2":"2 47773  53.0544  52.1692 0001114  87.8204 272.2913 15.06388821126144","EPHEMERIS_TYPE":"0","ARG_OF_PERICENTER":"87.8204","MEAN_MOTION_DDOT":"0.0000000000000","BSTAR":"0.00146890000000","FILE":"3928876","SITE":"AFETR","GP_ID":"233544835","OBJECT_TYPE":"PAYLOAD","REV_AT_EPOCH":"12614","MEAN_MOTION":"15.06388821","LAUNCH_DATE":"2021-03-04"},{"SITE":"AFETR","GP_ID":"233578364","ARG_OF_PERICENTER":"76.8906","MEAN_MOTION_DDOT":"0.0000000000000","BSTAR":"0.00145810000000","FILE":"3929125","REV_AT_EPOCH":"12628","MEAN_MOTION":"15.06398221","LAUNCH_DATE":"2021-03-04","OBJECT_TYPE":"PAYLOAD","TIME_SYSTEM":"UTC","MEAN_ELEMENT_THEORY":"SGP4","MEAN_ANOMALY":"283.2194","CLASSIFICATION_TYPE":"U","TLE_LINE1":"1 47774U 21017BE  23160.78642954  .00021502  00000-0  14581-2 0  9998","EPOCH":"2023-06-09T18:52:27.512256","RA_OF_ASC_NODE":"48.3143","REF_FRAME":"TEME","COUNTRY_CODE":"US","TLE_LINE2":"2 47774  53.0549  48.3143 0000998  76.8906 283.2194 15.06398221126287","EPHEMERIS_TYPE":"0","INCLINATION":"53.0549","SEMIMAJOR_AXIS":"6925.354","RCS_SIZE":"LARGE","CENTER_NAME":"EARTH","PERIOD":"95.592","NORAD_CAT_ID":"47774","MEAN_MOTION_DOT":"0.00021502","ECCENTRICITY":"0.00009980","PERIAPSIS":"546.528","ELEMENT_SET_NO":"999","OBJECT_ID":"2021-017BE","DECAY_DATE":null,"OBJECT_NAME":"STARLINK-2197","APOAPSIS":"547.910"},{"SEMIMAJOR_AXIS":"6925.350","PERIOD":"95.592","CENTER_NAME":"EARTH","RCS_SIZE":"LARGE","NORAD_CAT_ID":"47775","MEAN_MOTION_DOT":"0.00018886","ECCENTRICITY":"0.00012780","DECAY_DATE":null,"OBJECT_ID":"2021-017BF","PERIAPSIS":"546.330","ELEMENT_SET_NO":"999","OBJECT_NAME":"STARLINK-2198","APOAPSIS":"548.100","GP_ID":"233577114","SITE":"AFETR","FILE":"3929125","BSTAR":"0.00128340000000","MEAN_MOTION_DDOT":"0.0000000000000","ARG_OF_PERICENTER":"101.9806","LAUNCH_DATE":"2021-03-04","MEAN_MOTION":"15.06399438","REV_AT_EPOCH":"12631","OBJECT_TYPE":"PAYLOAD","TLE_LINE1":"1 47775U 21017BF  23160.66478146  .00018886  00000-0  12834-2 0  9996","EPOCH":"2023-06-09T15:57:17.118144","CLASSIFICATION_TYPE":"U","MEAN_ANOMALY":"258.1326","MEAN_ELEMENT_THEORY":"SGP4","TIME_SYSTEM":"UTC","RA_OF_ASC_NODE":"48.8620","EPHEMERIS_TYPE":"0","TLE_LINE2":"2 47775  53.0547  48.8620 0001278 101.9806 258.1326 15.06399438126315","COUNTRY_CODE":"US","REF_FRAME":"TEME","INCLINATION":"53.0547"},{"OBJECT_TYPE":"PAYLOAD","REV_AT_EPOCH":"12642","MEAN_MOTION":"15.06407905","LAUNCH_DATE":"2021-03-04","ARG_OF_PERICENTER":"73.9909","MEAN_MOTION_DDOT":"0.0000000000000","FILE":"3929125","BSTAR":"0.00103700000000","SITE":"AFETR","GP_ID":"233577364","INCLINATION":"53.0551","REF_FRAME":"TEME","COUNTRY_CODE":"US","TLE_LINE2":"2 47776  53.0551  38.7382 0001116  73.9909 286.1203 15.06407905126423","EPHEMERIS_TYPE":"0","RA_OF_ASC_NODE":"38.7382","TIME_SYSTEM":"UTC","MEAN_ELEMENT_THEORY":"SGP4","MEAN_ANOMALY":"286.1203","CLASSIFICATION_TYPE":"U","TLE_LINE1":"1 47776U 21017BG  23160.69149704  .00015202  00000-0  10370-2 0  9997","EPOCH":"2023-06-09T16:35:45.344256","ECCENTRICITY":"0.00011160","MEAN_MOTION_DOT":"0.00015202","NORAD_CAT_ID":"47776","CENTER_NAME":"EARTH","RCS_SIZE":"LARGE","PERIOD":"95.592","SEMIMAJOR_AXIS":"6925.324","APOAPSIS":"547.962","OBJECT_NAME":"STARLINK-2209","PERIAPSIS":"546.416","ELEMENT_SET_NO":"999","OBJECT_ID":"2021-017BG","DECAY_DATE":null},{"SEMIMAJOR_AXIS":"6925.325","RCS_SIZE":"LARGE","CENTER_NAME":"EARTH","PERIOD":"95.592","NORAD_CAT_ID":"47777","MEAN_MOTION_DOT":"0.00019043","ECCENTRICITY":"0.00010470","PERIAPSIS":"546.465","ELEMENT_SET_NO":"999","OBJECT_ID":"2021-017BH","DECAY_DATE":null,"OBJECT_NAME":"STARLINK-2210","APOAPSIS":"547.916","SITE":"AFETR","GP_ID":"233544340","ARG_OF_PERICENTER":"111.9218","MEAN_MOTION_DDOT":"0.0000000000000","FILE":"3928876","BSTAR":"0.00129360000000","REV_AT_EPOCH":"12637","MEAN_MOTION":"15.06407534","LAUNCH_DATE":"2021-03-04","OBJECT_TYPE":"PAYLOAD","TIME_SYSTEM":"UTC","MEAN_ELEMENT_THEORY":"SGP4","MEAN_ANOMALY":"248.1883","TLE_LINE1":"1 47777U 21017BH  23160.36345016  .00019043  00000-0  12936-2 0  9993","CLASSIFICATION_TYPE":"U","EPOCH":"2023-06-09T08:43:22.093824","RA_OF_ASC_NODE":"40.2142","REF_FRAME":"TEME","COUNTRY_CODE":"US","TLE_LINE2":"2 47777  53.0549  40.2142 0001047 111.9218 248.1883 15.06407534126376","EPHEMERIS_TYPE":"0","INCLINATION":"53.0549"},{"MEAN_MOTION_DOT":"0.00018134","ECCENTRICITY":"0.00005440","NORAD_CAT_ID":"47778","PERIOD":"95.591","CENTER_NAME":"EARTH","RCS_SIZE":"LARGE","SEMIMAJOR_AXIS":"6925.286","APOAPSIS":"547.528","OBJECT_NAME":"STARLINK-2211","DECAY_DATE":null,"OBJECT_ID":"2021-017BJ","ELEMENT_SET_NO":"999","PERIAPSIS":"546.775","OBJECT_TYPE":"PAYLOAD","LAUNCH_DATE":"2021-03-04","MEAN_MOTION":"15.06420288","REV_AT_EPOCH":"12645","FILE":"3929125","BSTAR":"0.00123250000000","MEAN_MOTION_DDOT":"0.0000000000000","ARG_OF_PERICENTER":"94.7838","GP_ID":"233578865","SITE":"AFETR","INCLINATION":"53.0546","EPHEMERIS_TYPE":"0","TLE_LINE2":"2 47778  53.0546  37.6826 0000544  94.7838 265.3213 15.06420288126458","COUNTRY_CODE":"US","REF_FRAME":"TEME","RA_OF_ASC_NODE":"37.6826","TLE_LINE1":"1 47778U 21017BJ  23160.92739547  .00018134  00000-0  12325-2 0  9994","CLASSIFICATION_TYPE":"U","EPOCH":"2023-06-09T22:15:26.968608","MEAN_ELEMENT_THEORY":"SGP4","MEAN_ANOMALY":"265.3213","TIME_SYSTEM":"UTC"},{"GP_ID":"233577615","SITE":"AFETR","FILE":"3929125","BSTAR":"0.00272040000000","MEAN_MOTION_DDOT":"0.0000000000000","ARG_OF_PERICENTER":"112.4685","LAUNCH_DATE":"2021-03-04","MEAN_MOTION":"15.41516891","REV_AT_EPOCH":"130","OBJECT_TYPE":"PAYLOAD","TLE_LINE1":"1 47779U 21017BK  23160.83334491  .00117280  00000-0  27204-2 0  9998","EPOCH":"2023-06-09T20:00:01.000224","CLASSIFICATION_TYPE":"U","MEAN_ELEMENT_THEORY":"SGP4","MEAN_ANOMALY":"90.6545","TIME_SYSTEM":"UTC","RA_OF_ASC_NODE":"355.2431","EPHEMERIS_TYPE":"0","TLE_LINE2":"2 47779  53.0467 355.2431 0004319 112.4685  90.6545 15.41516891  1302","COUNTRY_CODE":"US","REF_FRAME":"TEME","INCLINATION":"53.0467","SEMIMAJOR_AXIS":"6819.769","PERIOD":"93.414","CENTER_NAME":"EARTH","RCS_SIZE":"LARGE","NORAD_CAT_ID":"47779","MEAN_MOTION_DOT":"0.00117280","ECCENTRICITY":"0.00043190","DECAY_DATE":null,"OBJECT_ID":"2021-017BK","ELEMENT_SET_NO":"999","PERIAPSIS":"438.688","OBJECT_NAME":"STARLINK-2212","APOAPSIS":"444.579"},{"NORAD_CAT_ID":"47780","ECCENTRICITY":"0.00012120","MEAN_MOTION_DOT":"0.00020353","SEMIMAJOR_AXIS":"6925.331","PERIOD":"95.592","RCS_SIZE":"LARGE","CENTER_NAME":"EARTH","OBJECT_NAME":"STARLINK-2213","APOAPSIS":"548.035","OBJECT_ID":"2021-017BL","DECAY_DATE":null,"PERIAPSIS":"546.357","ELEMENT_SET_NO":"999","LAUNCH_DATE":"2021-03-04","REV_AT_EPOCH":"12647","MEAN_MOTION":"15.06405697","OBJECT_TYPE":"PAYLOAD","GP_ID":"233577865","SITE":"AFETR","MEAN_MOTION_DDOT":"0.0000000000000","BSTAR":"0.00138110000000","FILE":"3929125","ARG_OF_PERICENTER":"71.8614","TLE_LINE2":"2 47780  53.0552  38.1620 0001212  71.8614 288.2506 15.06405697126475","EPHEMERIS_TYPE":"0","REF_FRAME":"TEME","COUNTRY_CODE":"US","INCLINATION":"53.0552","TLE_LINE1":"1 47780U 21017BL  23160.82050181  .00020353  00000-0  13811-2 0  9993","EPOCH":"2023-06-09T19:41:31.356384","CLASSIFICATION_TYPE":"U","TIME_SYSTEM":"UTC","MEAN_ELEMENT_THEORY":"SGP4","MEAN_ANOMALY":"288.2506","RA_OF_ASC_NODE":"38.1620"}];
